CCSDS_OMM_VERS = 2.0
CREATION_DATE  = 
ORIGINATOR     = 

OBJECT_NAME    = DELTA 2 R/B(1)
OBJECT_ID      = 1990-008B
CENTER_NAME    = EARTH
REF_FRAME      = TEME
TIME_SYSTEM    = UTC
MEAN_ELEMENT_THEORY = SGP/SGP4

EPOCH          = 2026-02-17T18:52:43.566240
MEAN_MOTION    = 15.53171708
ECCENTRICITY   = .0089849
INCLINATION    = 35.6047
RA_OF_ASC_NODE = 305.1881
ARG_OF_PERICENTER = 72.7720
MEAN_ANOMALY   = 288.2826

EPHEMERIS_TYPE = 0
CLASSIFICATION_TYPE = U
NORAD_CAT_ID   = 20453
ELEMENT_SET_NO = 999
REV_AT_EPOCH   = 92303
BSTAR          = .69317E-3
MEAN_MOTION_DOT = .53891E-3
MEAN_MOTION_DDOT = 0

CCSDS_OMM_VERS = 2.0
CREATION_DATE  = 
ORIGINATOR     = 

OBJECT_NAME    = COSMOS 2058
OBJECT_ID      = 1990-010A
CENTER_NAME    = EARTH
REF_FRAME      = TEME
TIME_SYSTEM    = UTC
MEAN_ELEMENT_THEORY = SGP/SGP4

EPOCH          = 2026-02-17T12:27:42.520032
MEAN_MOTION    = 15.11130411
ECCENTRICITY   = .0011096
INCLINATION    = 82.4654
RA_OF_ASC_NODE = 67.2989
ARG_OF_PERICENTER = 51.8196
MEAN_ANOMALY   = 308.4031

EPHEMERIS_TYPE = 0
CLASSIFICATION_TYPE = U
NORAD_CAT_ID   = 20465
ELEMENT_SET_NO = 999
REV_AT_EPOCH   = 93919
BSTAR          = .24555E-3
MEAN_MOTION_DOT = .4148E-4
MEAN_MOTION_DDOT = 0

CCSDS_OMM_VERS = 2.0
CREATION_DATE  = 
ORIGINATOR     = 

OBJECT_NAME    = SL-14 R/B
OBJECT_ID      = 1990-010B
CENTER_NAME    = EARTH
REF_FRAME      = TEME
TIME_SYSTEM    = UTC
MEAN_ELEMENT_THEORY = SGP/SGP4

EPOCH          = 2026-02-17T15:43:25.480128
MEAN_MOTION    = 14.83551095
ECCENTRICITY   = .0020106
INCLINATION    = 82.5012
RA_OF_ASC_NODE = 286.2103
ARG_OF_PERICENTER = 10.4072
MEAN_ANOMALY   = 349.7554

EPHEMERIS_TYPE = 0
CLASSIFICATION_TYPE = U
NORAD_CAT_ID   = 20466
ELEMENT_SET_NO = 999
REV_AT_EPOCH   = 92551
BSTAR          = .44459E-4
MEAN_MOTION_DOT = .391E-5
MEAN_MOTION_DDOT = 0

CCSDS_OMM_VERS = 2.0
CREATION_DATE  = 
ORIGINATOR     = 

OBJECT_NAME    = SL-14 R/B
OBJECT_ID      = 1990-018B
CENTER_NAME    = EARTH
REF_FRAME      = TEME
TIME_SYSTEM    = UTC
MEAN_ELEMENT_THEORY = SGP/SGP4

EPOCH          = 2026-02-17T14:04:03.218304
MEAN_MOTION    = 14.82122056
ECCENTRICITY   = .001692
INCLINATION    = 82.5179
RA_OF_ASC_NODE = 241.8835
ARG_OF_PERICENTER = 153.6921
MEAN_ANOMALY   = 206.5157

EPHEMERIS_TYPE = 0
CLASSIFICATION_TYPE = U
NORAD_CAT_ID   = 20511
ELEMENT_SET_NO = 999
REV_AT_EPOCH   = 91960
BSTAR          = .4832E-4
MEAN_MOTION_DOT = .409E-5
MEAN_MOTION_DDOT = 0

CCSDS_OMM_VERS = 2.0
CREATION_DATE  = 
ORIGINATOR     = 

OBJECT_NAME    = HST
OBJECT_ID      = 1990-037B
CENTER_NAME    = EARTH
REF_FRAME      = TEME
TIME_SYSTEM    = UTC
MEAN_ELEMENT_THEORY = SGP/SGP4

EPOCH          = 2026-02-17T15:32:42.532800
MEAN_MOTION    = 15.29148830
ECCENTRICITY   = .0001123
INCLINATION    = 28.4680
RA_OF_ASC_NODE = 176.6860
ARG_OF_PERICENTER = 244.7875
MEAN_ANOMALY   = 115.2604

EPHEMERIS_TYPE = 0
CLASSIFICATION_TYPE = U
NORAD_CAT_ID   = 20580
ELEMENT_SET_NO = 999
REV_AT_EPOCH   = 77024
BSTAR          = .22432E-3
MEAN_MOTION_DOT = .6759E-4
MEAN_MOTION_DDOT = 0

CCSDS_OMM_VERS = 2.0
CREATION_DATE  = 
ORIGINATOR     = 

OBJECT_NAME    = SL-16 R/B
OBJECT_ID      = 1990-046B
CENTER_NAME    = EARTH
REF_FRAME      = TEME
TIME_SYSTEM    = UTC
MEAN_ELEMENT_THEORY = SGP/SGP4

EPOCH          = 2026-02-17T06:24:53.745408
MEAN_MOTION    = 14.15012001
ECCENTRICITY   = .0015277
INCLINATION    = 71.0015
RA_OF_ASC_NODE = 340.8028
ARG_OF_PERICENTER = 328.1534
MEAN_ANOMALY   = 31.8663

EPHEMERIS_TYPE = 0
CLASSIFICATION_TYPE = U
NORAD_CAT_ID   = 20625
ELEMENT_SET_NO = 999
REV_AT_EPOCH   = 84550
BSTAR          = .18446E-3
MEAN_MOTION_DOT = .31E-5
MEAN_MOTION_DDOT = 0

CCSDS_OMM_VERS = 2.0
CREATION_DATE  = 
ORIGINATOR     = 

OBJECT_NAME    = COSMOS 2084
OBJECT_ID      = 1990-055A
CENTER_NAME    = EARTH
REF_FRAME      = TEME
TIME_SYSTEM    = UTC
MEAN_ELEMENT_THEORY = SGP/SGP4

EPOCH          = 2026-02-17T09:33:20.954016
MEAN_MOTION    = 15.05514009
ECCENTRICITY   = .00201833
INCLINATION    = 62.7899
RA_OF_ASC_NODE = 44.7769
ARG_OF_PERICENTER = 185.5143
MEAN_ANOMALY   = 174.5739

EPHEMERIS_TYPE = 0
CLASSIFICATION_TYPE = U
NORAD_CAT_ID   = 20663
ELEMENT_SET_NO = 999
REV_AT_EPOCH   = 93326
BSTAR          = .22375331E-3
MEAN_MOTION_DOT = .3046E-4
MEAN_MOTION_DDOT = 0

CCSDS_OMM_VERS = 2.0
CREATION_DATE  = 
ORIGINATOR     = 

OBJECT_NAME    = SL-6 R/B(2)
OBJECT_ID      = 1990-055D
CENTER_NAME    = EARTH
REF_FRAME      = TEME
TIME_SYSTEM    = UTC
MEAN_ELEMENT_THEORY = SGP/SGP4

EPOCH          = 2026-02-17T03:41:25.555200
MEAN_MOTION    = 15.03491534
ECCENTRICITY   = .00216796
INCLINATION    = 62.7846
RA_OF_ASC_NODE = 323.6811
ARG_OF_PERICENTER = 341.6533
MEAN_ANOMALY   = 18.3782

EPHEMERIS_TYPE = 0
CLASSIFICATION_TYPE = U
NORAD_CAT_ID   = 20666
ELEMENT_SET_NO = 999
REV_AT_EPOCH   = 93510
BSTAR          = .22303288E-3
MEAN_MOTION_DOT = .287E-4
MEAN_MOTION_DDOT = 0

CCSDS_OMM_VERS = 2.0
CREATION_DATE  = 
ORIGINATOR     = 

OBJECT_NAME    = SL-8 R/B
OBJECT_ID      = 1990-078B
CENTER_NAME    = EARTH
REF_FRAME      = TEME
TIME_SYSTEM    = UTC
MEAN_ELEMENT_THEORY = SGP/SGP4

EPOCH          = 2026-02-17T16:19:56.724960
MEAN_MOTION    = 14.88378602
ECCENTRICITY   = .0366115
INCLINATION    = 82.9005
RA_OF_ASC_NODE = 269.2969
ARG_OF_PERICENTER = 81.0667
MEAN_ANOMALY   = 283.1801

EPHEMERIS_TYPE = 0
CLASSIFICATION_TYPE = U
NORAD_CAT_ID   = 20775
ELEMENT_SET_NO = 999
REV_AT_EPOCH   = 80632
BSTAR          = .42441E-3
MEAN_MOTION_DOT = .14464E-3
MEAN_MOTION_DDOT = 0

CCSDS_OMM_VERS = 2.0
CREATION_DATE  = 
ORIGINATOR     = 

OBJECT_NAME    = SL-8 R/B
OBJECT_ID      = 1991-006B
CENTER_NAME    = EARTH
REF_FRAME      = TEME
TIME_SYSTEM    = UTC
MEAN_ELEMENT_THEORY = SGP/SGP4

EPOCH          = 2026-02-17T12:07:45.955200
MEAN_MOTION    = 13.77492333
ECCENTRICITY   = .00237768
INCLINATION    = 82.9447
RA_OF_ASC_NODE = 185.0508
ARG_OF_PERICENTER = 92.1779
MEAN_ANOMALY   = 335.9878

EPHEMERIS_TYPE = 0
CLASSIFICATION_TYPE = U
NORAD_CAT_ID   = 21088
ELEMENT_SET_NO = 999
REV_AT_EPOCH   = 76129
BSTAR          = .687451E-6
MEAN_MOTION_DOT = .16E-6
MEAN_MOTION_DDOT = 0

CCSDS_OMM_VERS = 2.0
CREATION_DATE  = 
ORIGINATOR     = 

OBJECT_NAME    = OKEAN-3
OBJECT_ID      = 1991-039A
CENTER_NAME    = EARTH
REF_FRAME      = TEME
TIME_SYSTEM    = UTC
MEAN_ELEMENT_THEORY = SGP/SGP4

EPOCH          = 2026-02-17T19:05:56.005440
MEAN_MOTION    = 15.04647919
ECCENTRICITY   = .0015761
INCLINATION    = 82.5202
RA_OF_ASC_NODE = 356.1097
ARG_OF_PERICENTER = 42.7213
MEAN_ANOMALY   = 317.5236

EPHEMERIS_TYPE = 0
CLASSIFICATION_TYPE = U
NORAD_CAT_ID   = 21397
ELEMENT_SET_NO = 999
REV_AT_EPOCH   = 86204
BSTAR          = .2992E-3
MEAN_MOTION_DOT = .4243E-4
MEAN_MOTION_DDOT = 0

CCSDS_OMM_VERS = 2.0
CREATION_DATE  = 
ORIGINATOR     = 

OBJECT_NAME    = COSMOS 2151
OBJECT_ID      = 1991-042A
CENTER_NAME    = EARTH
REF_FRAME      = TEME
TIME_SYSTEM    = UTC
MEAN_ELEMENT_THEORY = SGP/SGP4

EPOCH          = 2026-02-17T19:19:16.930848
MEAN_MOTION    = 15.00026064
ECCENTRICITY   = .0013863
INCLINATION    = 82.4950
RA_OF_ASC_NODE = 102.8599
ARG_OF_PERICENTER = 123.3949
MEAN_ANOMALY   = 236.8603

EPHEMERIS_TYPE = 0
CLASSIFICATION_TYPE = U
NORAD_CAT_ID   = 21422
ELEMENT_SET_NO = 999
REV_AT_EPOCH   = 86021
BSTAR          = .12304E-3
MEAN_MOTION_DOT = .156E-4
MEAN_MOTION_DDOT = 0

